$$SOE
2459580.500000000, A.D. 2022-Jan-01 00:00:00.0000, -2.867748758531795E+08, -1.947074395486489E+08, -2.277919060018480E+07,
2459587.500000000, A.D. 2022-Jan-08 00:00:00.0000, -2.781032428558238E+08, -2.017612265166082E+08, -1.838955733091271E+07,
2459594.500000000, A.D. 2022-Jan-15 00:00:00.0000, -2.691002595032340E+08, -2.085745157977767E+08, -1.397803189071992E+07,
2459601.500000000, A.D. 2022-Jan-22 00:00:00.0000, -2.597671905080262E+08, -2.151318527037542E+08, -9.549381965172961E+06,
2459608.500000000, A.D. 2022-Jan-29 00:00:00.0000, -2.501059426603697E+08, -2.214172865958763E+08, -5.108692095128447E+06,
2459615.500000000, A.D. 2022-Feb-05 00:00:00.0000, -2.401191330870777E+08, -2.274143792990132E+08, -6.613793878196925E+05,
2459622.500000000, A.D. 2022-Feb-12 00:00:00.0000, -2.298101599730017E+08, -2.331062199317077E+08, 3.786790745401189E+06,
2459629.500000000, A.D. 2022-Feb-19 00:00:00.0000, -2.191832770359134E+08, -2.384754446569528E+08, 8.229689399263173E+06,
2459636.500000000, A.D. 2022-Feb-26 00:00:00.0000, -2.082436729297464E+08, -2.435042630300913E+08, 1.266080990484358E+07,
2459643.500000000, A.D. 2022-Mar-05 00:00:00.0000, -1.969975551534731E+08, -2.481744925938194E+08, 1.707325478181273E+07,
2459650.500000000, A.D. 2022-Mar-12 00:00:00.0000, -1.854522378292650E+08, -2.524676028948066E+08, 2.145972431512251E+07,
2459657.500000000, A.D. 2022-Mar-19 00:00:00.0000, -1.736162326883527E+08, -2.563647700643801E+08, 2.581250724757001E+07,
2459664.500000000, A.D. 2022-Mar-26 00:00:00.0000, -1.614993424435734E+08, -2.598469431743438E+08, 3.012347415319072E+07,
2459671.500000000, A.D. 2022-Apr-02 00:00:00.0000, -1.491127554348179E+08, -2.628949236290938E+08, 3.438407411944030E+07,
2459678.500000000, A.D. 2022-Apr-09 00:00:00.0000, -1.364691399407501E+08, -2.654894587573819E+08, 3.858533541805278E+07,
2459685.500000000, A.D. 2022-Apr-16 00:00:00.0000, -1.235827361402575E+08, -2.676113500429262E+08, 4.271787094759429E+07,
2459692.500000000, A.D. 2022-Apr-23 00:00:00.0000, -1.104694449865502E+08, -2.692415758830116E+08, 4.677188946636519E+07,
2459699.500000000, A.D. 2022-Apr-30 00:00:00.0000, -9.714691350443721E+07, -2.703614319061948E+08, 5.073721346098847E+07,
2459706.500000000, A.D. 2022-May-07 00:00:00.0000, -8.363461073368889E+07, -2.709526913283003E+08, 5.460330409284637E+07,
2459713.500000000, A.D. 2022-May-14 00:00:00.0000, -6.995388986210285E+07, -2.709977824241815E+08, 5.835929422344612E+07,
2459720.500000000, A.D. 2022-May-21 00:00:00.0000, -5.612803517574436E+07, -2.704799819716040E+08, 6.199403059966862E+07,
2459727.500000000, A.D. 2022-May-28 00:00:00.0000, -4.218229061539926E+07, -2.693836246382791E+08, 6.549612590128912E+07,
2459734.500000000, A.D. 2022-Jun-04 00:00:00.0000, -2.814386577479741E+07, -2.676943269320208E+08, 6.885402118648255E+07,
2459741.500000000, A.D. 2022-Jun-11 00:00:00.0000, -1.404191523189933E+07, -2.653992232171576E+08, 7.205605909619123E+07,
2459748.500000000, A.D. 2022-Jun-18 00:00:00.0000, 9.251271109297875E+04, -2.624872104130114E+08, 7.509056791096523E+07,
2459755.500000000, A.D. 2022-Jun-25 00:00:00.0000, 1.422656152126782E+07, -2.589491971172384E+08, 7.794595620986393E+07,
2459762.500000000, A.D. 2022-Jul-02 00:00:00.0000, 2.832568940848628E+07, -2.547783520049990E+08, 8.061081746612073E+07,
2459769.500000000, A.D. 2022-Jul-09 00:00:00.0000, 4.235383253251819E+07, -2.499703452387461E+08, 8.307404345498188E+07,
2459776.500000000, A.D. 2022-Jul-16 00:00:00.0000, 5.627360974166153E+07, -2.445235749644357E+08, 8.532494497413561E+07,
2459783.500000000, A.D. 2022-Jul-23 00:00:00.0000, 7.004656672887377E+07, -2.384393714135324E+08, 8.735337798854111E+07,
2459790.500000000, A.D. 2022-Jul-30 00:00:00.0000, 8.363345827980271E+07, -2.317221742678753E+08, 8.914987233230567E+07,
2459797.500000000, A.D. 2022-Aug-06 00:00:00.0000, 9.699456913934696E+07, -2.243796749946067E+08, 9.070575966840516E+07,
2459804.500000000, A.D. 2022-Aug-13 00:00:00.0000, 1.100900678476223E+08, -2.164229142034366E+08, 9.201329763684356E+07,
2459811.500000000, A.D. 2022-Aug-20 00:00:00.0000, 1.228803854125946E+08, -2.078663282146506E+08, 9.306578669849411E+07,
2459818.500000000, A.D. 2022-Aug-27 00:00:00.0000, 1.353266107265221E+08, -1.987277405618279E+08, 9.385767594867197E+07,
2459825.500000000, A.D. 2022-Sep-03 00:00:00.0000, 1.473908934799022E+08, -1.890282952500429E+08, 9.438465433157136E+07,
2459832.500000000, A.D. 2022-Sep-10 00:00:00.0000, 1.590368442184515E+08, -1.787923304928295E+08, 9.464372403373703E+07,
2459839.500000000, A.D. 2022-Sep-17 00:00:00.0000, 1.702299206603815E+08, -1.680471939250377E+08, 9.463325335154475E+07,
2459846.500000000, A.D. 2022-Sep-24 00:00:00.0000, 1.809377895062437E+08, -1.568230026547704E+08, 9.435300700331756E+07,
2459853.500000000, A.D. 2022-Oct-01 00:00:00.0000, 1.911306538161070E+08, -1.451523537186930E+08, 9.380415266150445E+07,
2459860.500000000, A.D. 2022-Oct-08 00:00:00.0000, 2.007815374105305E+08, -1.330699919546349E+08, 9.298924341868986E+07,
2459867.500000000, A.D. 2022-Oct-15 00:00:00.0000, 2.098665180971022E+08, -1.206124432492876E+08, 9.191217700803494E+07,
2459874.500000000, A.D. 2022-Oct-22 00:00:00.0000, 2.183649023148625E+08, -1.078176251273289E+08, 9.057813335164455E+07,
2459881.500000000, A.D. 2022-Oct-29 00:00:00.0000, 2.262593407301003E+08, -9.472444811588475E+07, 8.899349227913263E+07,
2459888.500000000, A.D. 2022-Nov-05 00:00:00.0000, 2.335358862483692E+08, -8.137241597347736E+07, 8.716573436897185E+07,
2459895.500000000, A.D. 2022-Nov-12 00:00:00.0000, 2.401839940766869E+08, -6.780123380409688E+07, 8.510332857741037E+07,
2459902.500000000, A.D. 2022-Nov-19 00:00:00.0000, 2.461964667117296E+08, -5.405043428540182E+07, 8.281561028016680E+07,
2459909.500000000, A.D. 2022-Nov-26 00:00:00.0000, 2.515693493694536E+08, -4.015903030281347E+07, 8.031265336544904E+07,
2459916.500000000, A.D. 2022-Dec-03 00:00:00.0000, 2.563017825271533E+08, -2.616520027230558E+07, 7.760513993524139E+07,
2459923.500000000, A.D. 2022-Dec-10 00:00:00.0000, 2.603958189439241E+08, -1.210601066518960E+07, 7.470423091125746E+07,
2459930.500000000, A.D. 2022-Dec-17 00:00:00.0000, 2.638562128912206E+08, 1.982821445332795E+06, 7.162144044966768E+07,
2459937.500000000, A.D. 2022-Dec-24 00:00:00.0000, 2.666901894047545E+08, 1.606712458843951E+07, 6.836851658860116E+07,
2459944.500000000, A.D. 2022-Dec-31 00:00:00.0000, 2.689072012747519E+08, 3.011442824896976E+07, 6.495733003114504E+07,
2459951.500000000, A.D. 2023-Jan-07 00:00:00.0000, 2.705186806480210E+08, 4.409407985452549E+07, 6.139977253937579E+07,
2459958.500000000, A.D. 2023-Jan-14 00:00:00.0000, 2.715377892553740E+08, 5.797732639661108E+07, 5.770766608915956E+07,
2459965.500000000, A.D. 2023-Jan-21 00:00:00.0000, 2.719791717298951E+08, 7.173736071014476E+07, 5.389268307447135E+07,
2459972.500000000, A.D. 2023-Jan-28 00:00:00.0000, 2.718587198442203E+08, 8.534933586229643E+07, 4.996627729508297E+07,
2459979.500000000, A.D. 2023-Feb-04 00:00:00.0000, 2.711933506836832E+08, 9.879035457115519E+07, 4.593962575449260E+07,
2459986.500000000, A.D. 2023-Feb-11 00:00:00.0000, 2.700007993153558E+08, 1.120394374048054E+08, 4.182358092489528E+07,
2459993.500000000, A.D. 2023-Feb-18 00:00:00.0000, 2.682994274480745E+08, 1.250774727850998E+08, 3.762863273718537E+07,
2460000.500000000, A.D. 2023-Feb-25 00:00:00.0000, 2.661080492117122E+08, 1.378871522824567E+08, 3.336487945642388E+07,
2460007.500000000, A.D. 2023-Mar-04 00:00:00.0000, 2.634457744555195E+08, 1.504528945899529E+08, 2.904200656817941E+07,
2460014.500000000, A.D. 2023-Mar-11 00:00:00.0000, 2.603318694392404E+08, 1.627607612058902E+08, 2.466927277921727E+07,
2460021.500000000, A.D. 2023-Mar-18 00:00:00.0000, 2.567856344475847E+08, 1.747983664294956E+08, 2.025550222785725E+07,
2460028.500000000, A.D. 2023-Mar-25 00:00:00.0000, 2.528262977331153E+08, 1.865547839009835E+08, 1.580908200687364E+07,
2460035.500000000, A.D. 2023-Apr-01 00:00:00.0000, 2.484729252113923E+08, 1.980204519977323E+08, 1.133796416191818E+07,
2460042.500000000, A.D. 2023-Apr-08 00:00:00.0000, 2.437443441550930E+08, 2.091870808902864E+08, 6.849671552568689E+06,
2460049.500000000, A.D. 2023-Apr-15 00:00:00.0000, 2.386590773359482E+08, 2.200475614352235E+08, 2.351307004559726E+06,
2460056.500000000, A.D. 2023-Apr-22 00:00:00.0000, 2.332352882096696E+08, 2.305958738749892E+08, -2.150435281457961E+06,
2460063.500000000, A.D. 2023-Apr-29 00:00:00.0000, 2.274907386832115E+08, 2.408269993639563E+08, -6.649256681040764E+06,
2460070.500000000, A.D. 2023-May-06 00:00:00.0000, 2.214427565373041E+08, 2.507368366577984E+08, -1.113923962833174E+07,
2460077.500000000, A.D. 2023-May-13 00:00:00.0000, 2.151082104238290E+08, 2.603221234587777E+08, -1.561483202329575E+07,
2460084.500000000, A.D. 2023-May-20 00:00:00.0000, 2.085034916451454E+08, 2.695803621662040E+08, -2.007083097402628E+07,
2460091.500000000, A.D. 2023-May-27 00:00:00.0000, 2.016445019626001E+08, 2.785097501222816E+08, -2.450236618704937E+07,
2460098.500000000, A.D. 2023-Jun-03 00:00:00.0000, 1.945466466288794E+08, 2.871091144021748E+08, -2.890488325136924E+07,
2460105.500000000, A.D. 2023-Jun-10 00:00:00.0000, 1.872248318885007E+08, 2.953778510813420E+08, -3.327412701766621E+07,
2460112.500000000, A.D. 2023-Jun-17 00:00:00.0000, 1.796934663373473E+08, 3.033158688087319E+08, -3.760612524491450E+07,
2460119.500000000, A.D. 2023-Jun-24 00:00:00.0000, 1.719664658412194E+08, 3.109235365876276E+08, -4.189717266496465E+07,
2460126.500000000, A.D. 2023-Jul-01 00:00:00.0000, 1.640572617215426E+08, 3.182016364074175E+08, -4.614381551820211E+07,
2460133.500000000, A.D. 2023-Jul-08 00:00:00.0000, 1.559788100562605E+08, 3.251513213364040E+08, -5.034283641182292E+07,
2460140.500000000, A.D. 2023-Jul-15 00:00:00.0000, 1.477436003952194E+08, 3.317740760209504E+08, -5.449123966412956E+07,
2460147.500000000, A.D. 2023-Jul-22 00:00:00.0000, 1.393636670484844E+08, 3.380716783379950E+08, -5.858623757745267E+07,
$$EOE